0 COSMOS 2251 DEB
1 34022U 93036HH  13282.73081721  .00000302  00000-0  11590-3 0  2545
2 34022 074.0556 146.6734 0024629 242.6000 183.1363 14.34544336243773
0 COSMOS 2251 DEB
1 34022U 93036HH  13283.78245181  .00000335  00000-0  12771-3 0  2552
2 34022 074.0554 144.7497 0024574 240.4746 214.0958 14.34545013243922
0 COSMOS 2251 DEB
1 34022U 93036HH  13286.35404291  .00000340  00000-0  12926-3 0  2577
2 34022 074.0551 140.0458 0024509 235.2839 174.5765 14.34546477244290
0 COSMOS 2251 DEB
1 34022U 93036HH  13287.40268090  .00000391  00000-0  14728-3 0  2588
2 34022 074.0549 138.1276 0024477 233.1817 190.0533 14.34547334244446
0 COSMOS 2251 DEB
1 34022U 93036HH  13288.73985024  .00000451  00000-0  16848-3 0  2591
2 34022 074.0548 135.6814 0024432 230.4607 255.6365 14.34549244244637
0 COSMOS 2251 DEB
1 34022U 93036HH  13289.78086593  .00000401  00000-0  15073-3 0  2606
2 34022 074.0548 133.7771 0024390 228.3627 231.7687 14.34550684244787
0 COSMOS 2251 DEB
1 34022U 93036HH  13290.89794414  .00000397  00000-0  14942-3 0  2617
2 34022 074.0548 131.7335 0024356 226.1171 240.7138 14.34551359244942
0 COSMOS 2251 DEB
1 34022U 93036HH  13291.94625851  .00000454  00000-0  16970-3 0  2620
2 34022 074.0549 129.8158 0024312 223.9867 254.5680 14.34551925245094
0 COSMOS 2251 DEB
1 34022U 93036HH  13293.00061797  .00000490  00000-0  18213-3 0  2635
2 34022 074.0550 127.8871 0024273 221.8237 299.6628 14.34552938245244
0 COSMOS 2251 DEB
1 34022U 93036HH  13294.50758606  .00000485  00000-0  18032-3 0  2647
2 34022 074.0550 125.1303 0024220 218.7619 162.1686 14.34554913245463
0 COSMOS 2251 DEB
1 34022U 93036HH  13295.63305063  .00000587  00000-0  21641-3 0  2651
2 34022 074.0550 123.0713 0024185 216.4788 214.4632 14.34555553245628
